YAM-7                   
1 60504U 24149AN  26068.71799904  .00009009  00000+0  30984-3 0  9997
2 60504  97.3828 149.4631 0001973 296.5121  63.5918 15.30304554 86835
STARLINK-35816          
1 66499U 25263Q   26068.15693726  .00038120  00000+0  13878-2 0  9995
2 66499  43.0030 354.0351 0001765 277.2488  82.8163 15.27576912 18815
